start=new Date('2021-10-02T00:00:00.000Z').valueOf();
sats=[{"ECCENTRICITY":"0.00011970","TLE_LINE2":"2 46589  53.0546 229.4921 0001197  58.8860 301.2246 15.06399102 55597","SITE":"AFETR","MEAN_MOTION_DOT":"0.00000409","CENTER_NAME":"EARTH","LAUNCH_DATE":"2020-10-06","RCS_SIZE":"LARGE","NORAD_CAT_ID":"46589","GP_ID":"185962170","CLASSIFICATION_TYPE":"U","REF_FRAME":"TEME","MEAN_MOTION":"15.06399102","EPHEMERIS_TYPE":"0","TLE_LINE1":"1 46589U 20070BK  21274.59732313  .00000409  00000-0  46342-4 0  9996","INCLINATION":"53.0546","BSTAR":"0.00004634200000","TIME_SYSTEM":"UTC","DECAY_DATE":null,"OBJECT_NAME":"STARLINK-1749","ELEMENT_SET_NO":"999","EPOCH":"2021-10-01T14:20:08.718432","APOAPSIS":"548.045","RA_OF_ASC_NODE":"229.4921","PERIAPSIS":"546.387","PERIOD":"95.592","MEAN_MOTION_DDOT":"0.0000000000000","COUNTRY_CODE":"US","REV_AT_EPOCH":"5559","ARG_OF_PERICENTER":"58.8860","OBJECT_ID":"2020-070BK","SEMIMAJOR_AXIS":"6925.351","FILE":"3139397","MEAN_ELEMENT_THEORY":"SGP4","MEAN_ANOMALY":"301.2246","OBJECT_TYPE":"PAYLOAD"},{"MEAN_ANOMALY":"280.1614","OBJECT_TYPE":"PAYLOAD","FILE":"3139397","MEAN_ELEMENT_THEORY":"SGP4","REV_AT_EPOCH":"5669","ARG_OF_PERICENTER":"79.9605","SEMIMAJOR_AXIS":"6925.341","OBJECT_ID":"2020-070BL","PERIOD":"95.592","COUNTRY_CODE":"US","MEAN_MOTION_DDOT":"0.0000000000000","PERIAPSIS":"545.794","RA_OF_ASC_NODE":"153.1639","APOAPSIS":"548.618","OBJECT_NAME":"STARLINK-1754","EPOCH":"2021-10-01T21:42:40.806144","ELEMENT_SET_NO":"999","BSTAR":"0.00001975100000","TIME_SYSTEM":"UTC","DECAY_DATE":null,"EPHEMERIS_TYPE":"0","TLE_LINE1":"1 46590U 20070BL  21274.90463896  .00000012  00000-0  19751-4 0  9994","INCLINATION":"53.0425","MEAN_MOTION":"15.06402566","REF_FRAME":"TEME","RCS_SIZE":"LARGE","NORAD_CAT_ID":"46590","GP_ID":"185961923","CLASSIFICATION_TYPE":"U","SITE":"AFETR","MEAN_MOTION_DOT":"0.00000012","CENTER_NAME":"EARTH","LAUNCH_DATE":"2020-10-06","TLE_LINE2":"2 46590  53.0425 153.1639 0002039  79.9605 280.1614 15.06402566 56696","ECCENTRICITY":"0.00020390"},{"TLE_LINE2":"2 46591  53.0549 229.5549 0001647  65.4845 294.6315 15.06397645 54655","ECCENTRICITY":"0.00016470","LAUNCH_DATE":"2020-10-06","MEAN_MOTION_DOT":"0.00001219","CENTER_NAME":"EARTH","SITE":"AFETR","CLASSIFICATION_TYPE":"U","NORAD_CAT_ID":"46591","GP_ID":"185961176","RCS_SIZE":"LARGE","MEAN_MOTION":"15.06397645","REF_FRAME":"TEME","TLE_LINE1":"1 46591U 20070BM  21274.58626875  .00001219  00000-0  10075-3 0  9996","INCLINATION":"53.0549","EPHEMERIS_TYPE":"0","DECAY_DATE":null,"TIME_SYSTEM":"UTC","BSTAR":"0.00010075000000","EPOCH":"2021-10-01T14:04:13.620000","ELEMENT_SET_NO":"999","OBJECT_NAME":"STARLINK-1755","APOAPSIS":"548.361","RA_OF_ASC_NODE":"229.5549","PERIAPSIS":"546.080","COUNTRY_CODE":"US","MEAN_MOTION_DDOT":"0.0000000000000","PERIOD":"95.592","OBJECT_ID":"2020-070BM","SEMIMAJOR_AXIS":"6925.356","ARG_OF_PERICENTER":"65.4845","REV_AT_EPOCH":"5465","MEAN_ELEMENT_THEORY":"SGP4","FILE":"3139397","OBJECT_TYPE":"PAYLOAD","MEAN_ANOMALY":"294.6315"},{"ARG_OF_PERICENTER":"82.9949","OBJECT_ID":"2020-073B","SEMIMAJOR_AXIS":"6925.341","REV_AT_EPOCH":"5291","PERIOD":"95.592","MEAN_MOTION_DDOT":"0.0000000000000","COUNTRY_CODE":"US","PERIAPSIS":"546.452","RA_OF_ASC_NODE":"318.3325","MEAN_ANOMALY":"277.1163","OBJECT_TYPE":"PAYLOAD","MEAN_ELEMENT_THEORY":"SGP4","FILE":"3139397","REF_FRAME":"TEME","MEAN_MOTION":"15.06402376","NORAD_CAT_ID":"46671","GP_ID":"185961931","CLASSIFICATION_TYPE":"U","RCS_SIZE":"LARGE","CENTER_NAME":"EARTH","MEAN_MOTION_DOT":"0.00002035","LAUNCH_DATE":"2020-10-18","SITE":"AFETR","TLE_LINE2":"2 46671  53.0551 318.3325 0001089  82.9949 277.1163 15.06402376 52917","ECCENTRICITY":"0.00010890","APOAPSIS":"547.960","ELEMENT_SET_NO":"999","EPOCH":"2021-10-01T20:34:17.838624","OBJECT_NAME":"STARLINK-1715","TIME_SYSTEM":"UTC","DECAY_DATE":null,"BSTAR":"0.00015543000000","TLE_LINE1":"1 46671U 20073B   21274.85715091  .00002035  00000-0  15543-3 0  9999","INCLINATION":"53.0551","EPHEMERIS_TYPE":"0"},{"APOAPSIS":"547.937","ELEMENT_SET_NO":"999","EPOCH":"2021-10-01T19:56:32.605152","OBJECT_NAME":"STARLINK-1716","DECAY_DATE":null,"TIME_SYSTEM":"UTC","BSTAR":"0.00028431000000","TLE_LINE1":"1 46672U 20073C   21274.83093293  .00003956  00000-0  28431-3 0  9994","INCLINATION":"53.0542","EPHEMERIS_TYPE":"0","MEAN_MOTION":"15.06399421","REF_FRAME":"TEME","CLASSIFICATION_TYPE":"U","NORAD_CAT_ID":"46672","GP_ID":"185961184","RCS_SIZE":"LARGE","LAUNCH_DATE":"2020-10-18","MEAN_MOTION_DOT":"0.00003956","CENTER_NAME":"EARTH","SITE":"AFETR","TLE_LINE2":"2 46672  53.0542 313.4478 0001042  86.9503 273.1605 15.06399421 52982","ECCENTRICITY":"0.00010420","OBJECT_TYPE":"PAYLOAD","MEAN_ANOMALY":"273.1605","MEAN_ELEMENT_THEORY":"SGP4","FILE":"3139397","OBJECT_ID":"2020-073C","SEMIMAJOR_AXIS":"6925.350","ARG_OF_PERICENTER":"86.9503","REV_AT_EPOCH":"5298","COUNTRY_CODE":"US","MEAN_MOTION_DDOT":"0.0000000000000","PERIOD":"95.592","PERIAPSIS":"546.494","RA_OF_ASC_NODE":"313.4478"},{"APOAPSIS":"547.878","OBJECT_NAME":"STARLINK-1717","ELEMENT_SET_NO":"999","EPOCH":"2021-10-01T20:48:53.774784","BSTAR":"0.00009710300000","DECAY_DATE":null,"TIME_SYSTEM":"UTC","EPHEMERIS_TYPE":"0","INCLINATION":"53.0555","TLE_LINE1":"1 46673U 20073D   21274.86728906  .00001166  00000-0  97103-4 0  9998","MEAN_MOTION":"15.06404343","REF_FRAME":"TEME","RCS_SIZE":"LARGE","CLASSIFICATION_TYPE":"U","GP_ID":"185961434","NORAD_CAT_ID":"46673","SITE":"AFETR","LAUNCH_DATE":"2020-10-18","MEAN_MOTION_DOT":"0.00001166","CENTER_NAME":"EARTH","TLE_LINE2":"2 46673  53.0555 328.2923 0000978  88.0810 272.0291 15.06404343 52773","ECCENTRICITY":"0.00009780","OBJECT_TYPE":"PAYLOAD","MEAN_ANOMALY":"272.0291","FILE":"3139397","MEAN_ELEMENT_THEORY":"SGP4","REV_AT_EPOCH":"5277","OBJECT_ID":"2020-073D","SEMIMAJOR_AXIS":"6925.335","ARG_OF_PERICENTER":"88.0810","COUNTRY_CODE":"US","MEAN_MOTION_DDOT":"0.0000000000000","PERIOD":"95.592","PERIAPSIS":"546.523","RA_OF_ASC_NODE":"328.2923"},{"RA_OF_ASC_NODE":"314.5285","PERIAPSIS":"546.216","PERIOD":"95.592","MEAN_MOTION_DDOT":"0.0000000000000","COUNTRY_CODE":"US","REV_AT_EPOCH":"5294","ARG_OF_PERICENTER":"81.1765","OBJECT_ID":"2020-073E","SEMIMAJOR_AXIS":"6925.342","FILE":"3139397","MEAN_ELEMENT_THEORY":"SGP4","MEAN_ANOMALY":"278.9386","OBJECT_TYPE":"PAYLOAD","ECCENTRICITY":"0.00014320","TLE_LINE2":"2 46674  53.0550 314.5285 0001432  81.1765 278.9386 15.06402033 52940","SITE":"AFETR","CENTER_NAME":"EARTH","MEAN_MOTION_DOT":"0.00000490","LAUNCH_DATE":"2020-10-18","RCS_SIZE":"LARGE","NORAD_CAT_ID":"46674","GP_ID":"185961678","CLASSIFICATION_TYPE":"U","MEAN_MOTION":"15.06402033","REF_FRAME":"TEME","EPHEMERIS_TYPE":"0","TLE_LINE1":"1 46674U 20073E   21274.59133307  .00000490  00000-0  51799-4 0  9994","INCLINATION":"53.0550","BSTAR":"0.00005179900000","TIME_SYSTEM":"UTC","DECAY_DATE":null,"OBJECT_NAME":"STARLINK-1718","EPOCH":"2021-10-01T14:11:31.177248","ELEMENT_SET_NO":"999","APOAPSIS":"548.199"},{"APOAPSIS":"547.956","OBJECT_NAME":"STARLINK-1720","ELEMENT_SET_NO":"999","EPOCH":"2021-10-01T14:06:12.320640","BSTAR":"0.00010710000000","DECAY_DATE":null,"TIME_SYSTEM":"UTC","EPHEMERIS_TYPE":"0","TLE_LINE1":"1 46675U 20073F   21274.58764260  .00001314  00000-0  10710-3 0  9995","INCLINATION":"53.0548","MEAN_MOTION":"15.06401486","REF_FRAME":"TEME","RCS_SIZE":"LARGE","CLASSIFICATION_TYPE":"U","GP_ID":"185962432","NORAD_CAT_ID":"46675","SITE":"AFETR","LAUNCH_DATE":"2020-10-18","MEAN_MOTION_DOT":"0.00001314","CENTER_NAME":"EARTH","ECCENTRICITY":"0.00010790","TLE_LINE2":"2 46675  53.0548 314.5470 0001079  77.3395 282.7715 15.06401486 52947","MEAN_ANOMALY":"282.7715","OBJECT_TYPE":"PAYLOAD","FILE":"3139397","MEAN_ELEMENT_THEORY":"SGP4","REV_AT_EPOCH":"5294","SEMIMAJOR_AXIS":"6925.344","OBJECT_ID":"2020-073F","ARG_OF_PERICENTER":"77.3395","MEAN_MOTION_DDOT":"0.0000000000000","COUNTRY_CODE":"US","PERIOD":"95.592","PERIAPSIS":"546.462","RA_OF_ASC_NODE":"314.5470"},{"REV_AT_EPOCH":"5380","OBJECT_ID":"2020-073G","SEMIMAJOR_AXIS":"6716.733","ARG_OF_PERICENTER":"72.1236","MEAN_MOTION_DDOT":"0.0000000000000","COUNTRY_CODE":"US","PERIOD":"91.305","PERIAPSIS":"335.782","RA_OF_ASC_NODE":"254.1641","MEAN_ANOMALY":"288.0240","OBJECT_TYPE":"PAYLOAD","FILE":"3139397","MEAN_ELEMENT_THEORY":"SGP4","REF_FRAME":"TEME","MEAN_MOTION":"15.77123251","RCS_SIZE":"LARGE","CLASSIFICATION_TYPE":"U","GP_ID":"185960684","NORAD_CAT_ID":"46676","SITE":"AFETR","LAUNCH_DATE":"2020-10-18","MEAN_MOTION_DOT":"0.00303666","CENTER_NAME":"EARTH","TLE_LINE2":"2 46676  53.0564 254.1641 0004193  72.1236 288.0240 15.77123251 53809","ECCENTRICITY":"0.00041930","APOAPSIS":"341.414","OBJECT_NAME":"STARLINK-1731","EPOCH":"2021-10-01T16:03:46.569600","ELEMENT_SET_NO":"999","BSTAR":"0.00176230000000","DECAY_DATE":null,"TIME_SYSTEM":"UTC","EPHEMERIS_TYPE":"0","TLE_LINE1":"1 46676U 20073G   21274.66928900  .00303666  00000-0  17623-2 0  9992","INCLINATION":"53.0564"},{"MEAN_MOTION":"15.06402499","REF_FRAME":"TEME","GP_ID":"185960934","NORAD_CAT_ID":"46677","CLASSIFICATION_TYPE":"U","RCS_SIZE":"LARGE","MEAN_MOTION_DOT":"0.00000058","CENTER_NAME":"EARTH","LAUNCH_DATE":"2020-10-18","SITE":"AFETR","TLE_LINE2":"2 46677  53.0546 313.3765 0000942 104.9882 255.1211 15.06402499 52981","ECCENTRICITY":"0.00009420","APOAPSIS":"547.858","ELEMENT_SET_NO":"999","EPOCH":"2021-10-01T20:23:03.361344","OBJECT_NAME":"STARLINK-1766","TIME_SYSTEM":"UTC","DECAY_DATE":null,"BSTAR":"0.00002278800000","TLE_LINE1":"1 46677U 20073H   21274.84934446  .00000058  00000-0  22788-4 0  9994","INCLINATION":"53.0546","EPHEMERIS_TYPE":"0","ARG_OF_PERICENTER":"104.9882","OBJECT_ID":"2020-073H","SEMIMAJOR_AXIS":"6925.341","REV_AT_EPOCH":"5298","PERIOD":"95.592","COUNTRY_CODE":"US","MEAN_MOTION_DDOT":"0.0000000000000","PERIAPSIS":"546.554","RA_OF_ASC_NODE":"313.3765","MEAN_ANOMALY":"255.1211","OBJECT_TYPE":"PAYLOAD","MEAN_ELEMENT_THEORY":"SGP4","FILE":"3139397"}];
